0 YAOGAN 2
1 31490U 07019A   13282.50917311 -.00000130  00000-0 -11733-4 0   892
2 31490 097.9799 025.7351 0021791 039.2363 321.0430 14.74719439343370
0 YAOGAN 2
1 31490U 07019A   13282.84842485 -.00000079  00000-0 -42251-5 0   902
2 31490 097.9799 026.0692 0021772 038.3442 321.9324 14.74719749343420
0 YAOGAN 2
1 31490U 07019A   13283.18767626  .00000279  00000-0  49249-4 0   917
2 31490 097.9801 026.4031 0021776 037.1046 323.1732 14.74721703343471
0 YAOGAN 2
1 31490U 07019A   13283.32337555  .00000302  00000-0  52650-4 0   925
2 31490 097.9801 026.5369 0021747 036.6786 323.5919 14.74721956343492
0 YAOGAN 2
1 31490U 07019A   13283.66262602  .00000490  00000-0  80750-4 0   922
2 31490 097.9801 026.8710 0021735 035.6341 324.6325 14.74723282343541
0 YAOGAN 2
1 31490U 07019A   13283.79832624  .00000464  00000-0  76851-4 0   932
2 31490 097.9801 027.0048 0021717 035.2402 325.0236 14.74723302343563
0 YAOGAN 2
1 31490U 07019A   13284.20542728  .00000803  00000-0  12737-3 0   942
2 31490 097.9799 027.4054 0021674 033.9982 326.2651 14.74725343343628
0 YAOGAN 2
1 31490U 07019A   13284.47682652  .00000919  00000-0  14456-3 0   951
2 31490 097.9797 027.6732 0021642 033.0483 327.2079 14.74726425343664
0 YAOGAN 2
1 31490U 07019A   13285.49457837  .00000678  00000-0  10878-3 0   988
2 31490 097.9796 028.6761 0021587 030.0041 330.2391 14.74726712343818
0 YAOGAN 2
1 31490U 07019A   13285.83382888  .00000540  00000-0  88064-4 0   991
2 31490 097.9796 029.0101 0021588 028.7239 331.5142 14.74726558343866
0 YAOGAN 2
1 31490U 07019A   13286.24093051  .00000332  00000-0  57057-4 0  1008
2 31490 097.9799 029.4117 0021519 027.5818 332.6545 14.74725903343923
0 YAOGAN 2
1 31490U 07019A   13286.51233061  .00000236  00000-0  42761-4 0  1015
2 31490 097.9798 029.6791 0021538 026.7176 333.5135 14.74725772343964
0 YAOGAN 2
1 31490U 07019A   13286.85158098  .00000196  00000-0  36890-4 0  1020
2 31490 097.9796 030.0129 0021549 025.5220 334.7040 14.74725832344014
0 YAOGAN 2
1 31490U 07019A   13287.19083127  .00000385  00000-0  65001-4 0  1035
2 31490 097.9795 030.3465 0021515 024.3247 335.9002 14.74727014344068
0 YAOGAN 2
1 31490U 07019A   13287.53008034  .00000534  00000-0  87205-4 0  1044
2 31490 097.9794 030.6817 0021507 023.1652 337.0533 14.74728158344117
0 YAOGAN 2
1 31490U 07019A   13287.86932985  .00000532  00000-0  86981-4 0  1050
2 31490 097.9794 031.0159 0021493 022.1330 338.0792 14.74728505344166
0 YAOGAN 2
1 31490U 07019A   13288.20857984  .00000679  00000-0  10890-3 0  1062
2 31490 097.9789 031.3502 0021461 021.1019 339.1097 14.74729612344219
0 YAOGAN 2
1 31490U 07019A   13288.54782845  .00000788  00000-0  12516-3 0  1071
2 31490 097.9787 031.6844 0021398 019.9680 340.2372 14.74730706344267
0 YAOGAN 2
1 31490U 07019A   13288.88707744  .00000878  00000-0  13850-3 0  1086
2 31490 097.9790 032.0192 0021439 018.9622 341.2385 14.74731658344311
0 YAOGAN 2
1 31490U 07019A   13289.22632699  .00000886  00000-0  13975-3 0  1099
2 31490 097.9789 032.3534 0021365 017.8834 342.3145 14.74732140344361
0 YAOGAN 2
1 31490U 07019A   13289.56557544  .00000801  00000-0  12702-3 0  1107
2 31490 097.9789 032.6874 0021337 016.8260 343.3646 14.74732443344411
0 YAOGAN 2
1 31490U 07019A   13289.83697436  .00000762  00000-0  12128-3 0  1111
2 31490 097.9791 032.9549 0021297 016.1175 344.0688 14.74732730344456
0 YAOGAN 2
1 31490U 07019A   13290.24407368  .00000777  00000-0  12347-3 0  1121
2 31490 097.9793 033.3563 0021243 014.8716 345.3138 14.74733402344514
0 YAOGAN 2
1 31490U 07019A   13290.37977266  .00000736  00000-0  11731-3 0  1136
2 31490 097.9793 033.4900 0021233 014.4716 345.7093 14.74733460344535
0 YAOGAN 2
1 31490U 07019A   13290.71902131  .00000696  00000-0  11133-3 0  1145
2 31490 097.9794 033.8243 0021193 013.3786 346.7986 14.74733880344583
0 YAOGAN 2
1 31490U 07019A   13290.85472062  .00000695  00000-0  11120-3 0  1151
2 31490 097.9794 033.9580 0021197 013.0171 347.1577 14.74734060344602
0 YAOGAN 2
1 31490U 07019A   13291.19396908  .00000745  00000-0  11867-3 0  1168
2 31490 097.9798 034.2924 0021151 011.8950 348.2757 14.74734734344658
0 YAOGAN 2
1 31490U 07019A   13291.53321719  .00000745  00000-0  11863-3 0  1171
2 31490 097.9797 034.6270 0021169 010.7857 349.3802 14.74735363344706
0 YAOGAN 2
1 31490U 07019A   13291.87246529  .00000734  00000-0  11699-3 0  1189
2 31490 097.9799 034.9618 0021134 009.8131 350.3477 14.74735761344750
0 YAOGAN 2
1 31490U 07019A   13292.21171351  .00000800  00000-0  12682-3 0  1196
2 31490 097.9800 035.2965 0021175 008.7214 351.4364 14.74736600344803
0 YAOGAN 2
1 31490U 07019A   13292.55096124  .00000691  00000-0  11066-3 0  1202
2 31490 097.9800 035.6304 0021092 007.7520 352.3997 14.74736661344855
0 YAOGAN 2
1 31490U 07019A   13292.89020928  .00000695  00000-0  11123-3 0  1217
2 31490 097.9802 035.9649 0021107 006.6697 353.4782 14.74737136344900
0 YAOGAN 2
1 31490U 07019A   13293.22945740  .00000726  00000-0  11591-3 0  1228
2 31490 097.9809 036.2994 0021054 005.4692 354.6767 14.74737774344956
0 YAOGAN 2
1 31490U 07019A   13293.50085518  .00000641  00000-0  10314-3 0  1236
2 31490 097.9811 036.5669 0021029 004.6615 355.4782 14.74737790344997
0 YAOGAN 2
1 31490U 07019A   13293.84010258  .00000575  00000-0  93307-4 0  1243
2 31490 097.9809 036.9013 0021017 003.6655 356.4673 14.74737882345040
0 YAOGAN 2
1 31490U 07019A   13294.24720020  .00000685  00000-0  10973-3 0  1253
2 31490 097.9812 037.3026 0020925 002.1815 357.9519 14.74739030345101
0 YAOGAN 2
1 31490U 07019A   13294.51859706  .00000749  00000-0  11931-3 0  1264
2 31490 097.9809 037.5703 0020936 001.3072 358.8194 14.74739853345145
0 YAOGAN 2
1 31490U 07019A   13294.85784399  .00000702  00000-0  11236-3 0  1274
2 31490 097.9810 037.9047 0020928 000.0987 000.0219 14.74740192345191
0 YAOGAN 2
1 31490U 07019A   13295.19709092  .00000904  00000-0  14244-3 0  1286
2 31490 097.9809 038.2390 0020891 358.9792 001.1401 14.74741715345245
0 YAOGAN 2
1 31490U 07019A   13295.53633676  .00001020  00000-0  15966-3 0  1291
2 31490 097.9807 038.5736 0020886 357.9162 002.1962 14.74742947345290
0 YAOGAN 2
1 31490U 07019A   13295.87558296  .00000900  00000-0  14184-3 0  1301
2 31490 097.9807 038.9079 0020847 356.8227 003.2817 14.74742982345347
0 YAOGAN 2
1 31490U 07019A   13296.21483000  .00000935  00000-0  14703-3 0  1316
2 31490 097.9801 039.2421 0020780 355.6825 004.4209 14.74743689345391
